<?xml version="1.0" encoding="UTF-8"?>
<ndm xmlns:xsi="http://www.w3.org/2001/XMLSchema-instance" xsi:noNamespaceSchemaLocation="https://sanaregistry.org/r/ndmxml_unqualified/ndmxml-2.0.0-master-2.0.xsd">
<omm id="CCSDS_OMM_VERS" version="2.0">
<header><CREATION_DATE/><ORIGINATOR/></header><body><segment><metadata><OBJECT_NAME>CZ-4B R/B</OBJECT_NAME><OBJECT_ID>2004-035C</OBJECT_ID><CENTER_NAME>EARTH</CENTER_NAME><REF_FRAME>TEME</REF_FRAME><TIME_SYSTEM>UTC</TIME_SYSTEM><MEAN_ELEMENT_THEORY>SGP4</MEAN_ELEMENT_THEORY></metadata><data><meanElements><EPOCH>2022-06-04T20:19:26.977728</EPOCH><MEAN_MOTION>15.08053165</MEAN_MOTION><ECCENTRICITY>.0051643</ECCENTRICITY><INCLINATION>97.5170</INCLINATION><RA_OF_ASC_NODE>196.5747</RA_OF_ASC_NODE><ARG_OF_PERICENTER>63.9464</ARG_OF_PERICENTER><MEAN_ANOMALY>296.7068</MEAN_ANOMALY></meanElements><tleParameters><EPHEMERIS_TYPE>0</EPHEMERIS_TYPE><CLASSIFICATION_TYPE>U</CLASSIFICATION_TYPE><NORAD_CAT_ID>28415</NORAD_CAT_ID><ELEMENT_SET_NO>999</ELEMENT_SET_NO><REV_AT_EPOCH>97169</REV_AT_EPOCH><BSTAR>.11523E-3</BSTAR><MEAN_MOTION_DOT>.1765E-4</MEAN_MOTION_DOT><MEAN_MOTION_DDOT>0</MEAN_MOTION_DDOT></tleParameters></data></segment></body></omm>
<omm id="CCSDS_OMM_VERS" version="2.0">
<header><CREATION_DATE/><ORIGINATOR/></header><body><segment><metadata><OBJECT_NAME>CZ-2C R/B</OBJECT_NAME><OBJECT_ID>2004-046B</OBJECT_ID><CENTER_NAME>EARTH</CENTER_NAME><REF_FRAME>TEME</REF_FRAME><TIME_SYSTEM>UTC</TIME_SYSTEM><MEAN_ELEMENT_THEORY>SGP4</MEAN_ELEMENT_THEORY></metadata><data><meanElements><EPOCH>2022-06-04T21:50:16.360512</EPOCH><MEAN_MOTION>14.25830091</MEAN_MOTION><ECCENTRICITY>.0140382</ECCENTRICITY><INCLINATION>98.0638</INCLINATION><RA_OF_ASC_NODE>144.6560</RA_OF_ASC_NODE><ARG_OF_PERICENTER>259.3420</ARG_OF_PERICENTER><MEAN_ANOMALY>99.1927</MEAN_ANOMALY></meanElements><tleParameters><EPHEMERIS_TYPE>0</EPHEMERIS_TYPE><CLASSIFICATION_TYPE>U</CLASSIFICATION_TYPE><NORAD_CAT_ID>28480</NORAD_CAT_ID><ELEMENT_SET_NO>999</ELEMENT_SET_NO><REV_AT_EPOCH>91265</REV_AT_EPOCH><BSTAR>.29971E-4</BSTAR><MEAN_MOTION_DOT>.38E-6</MEAN_MOTION_DOT><MEAN_MOTION_DDOT>0</MEAN_MOTION_DDOT></tleParameters></data></segment></body></omm>
<omm id="CCSDS_OMM_VERS" version="2.0">
<header><CREATION_DATE/><ORIGINATOR/></header><body><segment><metadata><OBJECT_NAME>ARIANE 5 R/B</OBJECT_NAME><OBJECT_ID>2004-049H</OBJECT_ID><CENTER_NAME>EARTH</CENTER_NAME><REF_FRAME>TEME</REF_FRAME><TIME_SYSTEM>UTC</TIME_SYSTEM><MEAN_ELEMENT_THEORY>SGP4</MEAN_ELEMENT_THEORY></metadata><data><meanElements><EPOCH>2022-06-04T18:48:37.759104</EPOCH><MEAN_MOTION>14.80412677</MEAN_MOTION><ECCENTRICITY>.0092795</ECCENTRICITY><INCLINATION>98.0959</INCLINATION><RA_OF_ASC_NODE>272.4151</RA_OF_ASC_NODE><ARG_OF_PERICENTER>115.1223</ARG_OF_PERICENTER><MEAN_ANOMALY>44.4359</MEAN_ANOMALY></meanElements><tleParameters><EPHEMERIS_TYPE>0</EPHEMERIS_TYPE><CLASSIFICATION_TYPE>U</CLASSIFICATION_TYPE><NORAD_CAT_ID>28499</NORAD_CAT_ID><ELEMENT_SET_NO>999</ELEMENT_SET_NO><REV_AT_EPOCH>94220</REV_AT_EPOCH><BSTAR>.60065E-4</BSTAR><MEAN_MOTION_DOT>.434E-5</MEAN_MOTION_DOT><MEAN_MOTION_DDOT>0</MEAN_MOTION_DDOT></tleParameters></data></segment></body></omm>
<omm id="CCSDS_OMM_VERS" version="2.0">
<header><CREATION_DATE/><ORIGINATOR/></header><body><segment><metadata><OBJECT_NAME>CZ-2D R/B</OBJECT_NAME><OBJECT_ID>2005-024B</OBJECT_ID><CENTER_NAME>EARTH</CENTER_NAME><REF_FRAME>TEME</REF_FRAME><TIME_SYSTEM>UTC</TIME_SYSTEM><MEAN_ELEMENT_THEORY>SGP4</MEAN_ELEMENT_THEORY></metadata><data><meanElements><EPOCH>2022-06-04T21:57:06.174720</EPOCH><MEAN_MOTION>15.13766878</MEAN_MOTION><ECCENTRICITY>.0010331</ECCENTRICITY><INCLINATION>97.3512</INCLINATION><RA_OF_ASC_NODE>164.4689</RA_OF_ASC_NODE><ARG_OF_PERICENTER>213.2614</ARG_OF_PERICENTER><MEAN_ANOMALY>146.7970</MEAN_ANOMALY></meanElements><tleParameters><EPHEMERIS_TYPE>0</EPHEMERIS_TYPE><CLASSIFICATION_TYPE>U</CLASSIFICATION_TYPE><NORAD_CAT_ID>28738</NORAD_CAT_ID><ELEMENT_SET_NO>999</ELEMENT_SET_NO><REV_AT_EPOCH>92985</REV_AT_EPOCH><BSTAR>.11382E-3</BSTAR><MEAN_MOTION_DOT>.1991E-4</MEAN_MOTION_DOT><MEAN_MOTION_DDOT>0</MEAN_MOTION_DDOT></tleParameters></data></segment></body></omm>
<omm id="CCSDS_OMM_VERS" version="2.0">
<header><CREATION_DATE/><ORIGINATOR/></header><body><segment><metadata><OBJECT_NAME>SUZAKU (ASTRO-EII)</OBJECT_NAME><OBJECT_ID>2005-025A</OBJECT_ID><CENTER_NAME>EARTH</CENTER_NAME><REF_FRAME>TEME</REF_FRAME><TIME_SYSTEM>UTC</TIME_SYSTEM><MEAN_ELEMENT_THEORY>SGP4</MEAN_ELEMENT_THEORY></metadata><data><meanElements><EPOCH>2022-06-04T20:11:01.807296</EPOCH><MEAN_MOTION>15.21004989</MEAN_MOTION><ECCENTRICITY>.0004262</ECCENTRICITY><INCLINATION>31.3818</INCLINATION><RA_OF_ASC_NODE>24.3911</RA_OF_ASC_NODE><ARG_OF_PERICENTER>244.7420</ARG_OF_PERICENTER><MEAN_ANOMALY>115.2786</MEAN_ANOMALY></meanElements><tleParameters><EPHEMERIS_TYPE>0</EPHEMERIS_TYPE><CLASSIFICATION_TYPE>U</CLASSIFICATION_TYPE><NORAD_CAT_ID>28773</NORAD_CAT_ID><ELEMENT_SET_NO>999</ELEMENT_SET_NO><REV_AT_EPOCH>93308</REV_AT_EPOCH><BSTAR>.14882E-3</BSTAR><MEAN_MOTION_DOT>.348E-4</MEAN_MOTION_DOT><MEAN_MOTION_DDOT>0</MEAN_MOTION_DDOT></tleParameters></data></segment></body></omm>
<omm id="CCSDS_OMM_VERS" version="2.0">
<header><CREATION_DATE/><ORIGINATOR/></header><body><segment><metadata><OBJECT_NAME>ALOS (DAICHI)</OBJECT_NAME><OBJECT_ID>2006-002A</OBJECT_ID><CENTER_NAME>EARTH</CENTER_NAME><REF_FRAME>TEME</REF_FRAME><TIME_SYSTEM>UTC</TIME_SYSTEM><MEAN_ELEMENT_THEORY>SGP4</MEAN_ELEMENT_THEORY></metadata><data><meanElements><EPOCH>2022-06-05T03:16:26.904864</EPOCH><MEAN_MOTION>14.63178910</MEAN_MOTION><ECCENTRICITY>.0002016</ECCENTRICITY><INCLINATION>97.9346</INCLINATION><RA_OF_ASC_NODE>121.4534</RA_OF_ASC_NODE><ARG_OF_PERICENTER>39.0185</ARG_OF_PERICENTER><MEAN_ANOMALY>321.1139</MEAN_ANOMALY></meanElements><tleParameters><EPHEMERIS_TYPE>0</EPHEMERIS_TYPE><CLASSIFICATION_TYPE>U</CLASSIFICATION_TYPE><NORAD_CAT_ID>28931</NORAD_CAT_ID><ELEMENT_SET_NO>999</ELEMENT_SET_NO><REV_AT_EPOCH>87262</REV_AT_EPOCH><BSTAR>.12102E-3</BSTAR><MEAN_MOTION_DOT>.578E-5</MEAN_MOTION_DOT><MEAN_MOTION_DDOT>0</MEAN_MOTION_DDOT></tleParameters></data></segment></body></omm>
<omm id="CCSDS_OMM_VERS" version="2.0">
<header><CREATION_DATE/><ORIGINATOR/></header><body><segment><metadata><OBJECT_NAME>H-2A R/B</OBJECT_NAME><OBJECT_ID>2006-002B</OBJECT_ID><CENTER_NAME>EARTH</CENTER_NAME><REF_FRAME>TEME</REF_FRAME><TIME_SYSTEM>UTC</TIME_SYSTEM><MEAN_ELEMENT_THEORY>SGP4</MEAN_ELEMENT_THEORY></metadata><data><meanElements><EPOCH>2022-06-04T20:46:41.735712</EPOCH><MEAN_MOTION>14.93464690</MEAN_MOTION><ECCENTRICITY>.0087879</ECCENTRICITY><INCLINATION>98.2921</INCLINATION><RA_OF_ASC_NODE>197.6640</RA_OF_ASC_NODE><ARG_OF_PERICENTER>132.7592</ARG_OF_PERICENTER><MEAN_ANOMALY>228.1063</MEAN_ANOMALY></meanElements><tleParameters><EPHEMERIS_TYPE>0</EPHEMERIS_TYPE><CLASSIFICATION_TYPE>U</CLASSIFICATION_TYPE><NORAD_CAT_ID>28932</NORAD_CAT_ID><ELEMENT_SET_NO>999</ELEMENT_SET_NO><REV_AT_EPOCH>88816</REV_AT_EPOCH><BSTAR>.16905E-3</BSTAR><MEAN_MOTION_DOT>.1848E-4</MEAN_MOTION_DOT><MEAN_MOTION_DDOT>0</MEAN_MOTION_DDOT></tleParameters></data></segment></body></omm>
<omm id="CCSDS_OMM_VERS" version="2.0">
<header><CREATION_DATE/><ORIGINATOR/></header><body><segment><metadata><OBJECT_NAME>AKARI (ASTRO-F)</OBJECT_NAME><OBJECT_ID>2006-005A</OBJECT_ID><CENTER_NAME>EARTH</CENTER_NAME><REF_FRAME>TEME</REF_FRAME><TIME_SYSTEM>UTC</TIME_SYSTEM><MEAN_ELEMENT_THEORY>SGP4</MEAN_ELEMENT_THEORY></metadata><data><meanElements><EPOCH>2022-06-04T15:12:20.116224</EPOCH><MEAN_MOTION>15.45754033</MEAN_MOTION><ECCENTRICITY>.0069274</ECCENTRICITY><INCLINATION>98.1951</INCLINATION><RA_OF_ASC_NODE>227.2990</RA_OF_ASC_NODE><ARG_OF_PERICENTER>322.0387</ARG_OF_PERICENTER><MEAN_ANOMALY>37.5987</MEAN_ANOMALY></meanElements><tleParameters><EPHEMERIS_TYPE>0</EPHEMERIS_TYPE><CLASSIFICATION_TYPE>U</CLASSIFICATION_TYPE><NORAD_CAT_ID>28939</NORAD_CAT_ID><ELEMENT_SET_NO>999</ELEMENT_SET_NO><REV_AT_EPOCH>89110</REV_AT_EPOCH><BSTAR>.22025E-3</BSTAR><MEAN_MOTION_DOT>.11569E-3</MEAN_MOTION_DOT><MEAN_MOTION_DDOT>0</MEAN_MOTION_DDOT></tleParameters></data></segment></body></omm>

</ndm>
