CZ-4B R/B               
1 28415U 04035C   22155.84684002  .00001765  00000+0  11523-3 0  9992
2 28415  97.5170 196.5747 0051643  63.9464 296.7068 15.08053165971695
CZ-2C R/B               
1 28480U 04046B   22155.90991158  .00000038  00000+0  29971-4 0  9995
2 28480  98.0638 144.6560 0140382 259.3420  99.1927 14.25830091912650
ARIANE 5 R/B            
1 28499U 04049H   22155.78377036  .00000434  00000+0  60065-4 0  9996
2 28499  98.0959 272.4151 0092795 115.1223  44.4359 14.80412677942209
CZ-2D R/B               
1 28738U 05024B   22155.91465480  .00001991  00000+0  11382-3 0  9998
2 28738  97.3512 164.4689 0010331 213.2614 146.7970 15.13766878929851
SUZAKU (ASTRO-EII)      
1 28773U 05025A   22155.84099314  .00003480  00000+0  14882-3 0  9992
2 28773  31.3818  24.3911 0004262 244.7420 115.2786 15.21004989933082
ALOS (DAICHI)           
1 28931U 06002A   22156.13642251  .00000578  00000+0  12102-3 0  9999
2 28931  97.9346 121.4534 0002016  39.0185 321.1139 14.63178910872623
H-2A R/B                
1 28932U 06002B   22155.86576083  .00001848  00000+0  16905-3 0  9994
2 28932  98.2921 197.6640 0087879 132.7592 228.1063 14.93464690888167
AKARI (ASTRO-F)         
1 28939U 06005A   22155.63356616  .00011569  00000+0  22025-3 0  9998
2 28939  98.1951 227.2990 0069274 322.0387  37.5987 15.45754033891105
